LYNK TOWER 6            
1 59123U 24043AB  26068.89488777  .00011440  00000+0  40142-3 0  9996
2 59123  97.5426 204.1954 0009749 232.0253 128.0107 15.29548678111845
STARLINK-33794          
1 63820U 25092S   26068.30477631  .00031429  00000+0  11457-2 0  9998
2 63820  42.9993 174.9040 0001633 276.8561  83.2105 15.27611759 48555
